[{"OBJECT_NAME":"IXPE","OBJECT_ID":"2021-121A","EPOCH":"2026-03-10T00:00:02.999808","MEAN_MOTION":15.09223379,"ECCENTRICITY":0.00072712,"INCLINATION":0.2307,"RA_OF_ASC_NODE":347.0223,"ARG_OF_PERICENTER":20.3591,"MEAN_ANOMALY":57.9535,"EPHEMERIS_TYPE":0,"CLASSIFICATION_TYPE":"U","NORAD_CAT_ID":49954,"ELEMENT_SET_NO":999,"REV_AT_EPOCH":584,"BSTAR":0.0008624183,"MEAN_MOTION_DOT":0.00015078,"MEAN_MOTION_DDOT":0},{"OBJECT_NAME":"STARLINK-4581","OBJECT_ID":"2022-101BB","EPOCH":"2026-03-09T04:43:58.363392","MEAN_MOTION":15.08835839,"ECCENTRICITY":0.00014929,"INCLINATION":53.2184,"RA_OF_ASC_NODE":56.132,"ARG_OF_PERICENTER":93.2987,"MEAN_ANOMALY":266.8176,"EPHEMERIS_TYPE":0,"CLASSIFICATION_TYPE":"U","NORAD_CAT_ID":53576,"ELEMENT_SET_NO":999,"REV_AT_EPOCH":19719,"BSTAR":-3.6941512e-5,"MEAN_MOTION_DOT":-8.76e-6,"MEAN_MOTION_DDOT":0}]
